ORBCOMM FM103           
1 40091U 14040F   25331.17878871  .00000777  00000+0  20206-3 0  9997
2 40091  47.0062 327.8932 0002582 297.4770  62.5853 14.58492403587898
ORBCOMM FM114           
1 41179U 15081A   25331.12742305  .00000729  00000+0  19168-3 0  9990
2 41179  47.0026 237.0981 0002163 359.4806   0.6077 14.58528802528255
ORBCOMM FM119           
1 41180U 15081B   25330.50621594  .00000702  00000+0  18617-3 0  9998
2 41180  46.9984 149.3889 0000533  76.4810 283.6135 14.58457145529418
ORBCOMM FM105           
1 41181U 15081C   25330.26405958  .00000248  00000+0  11429-3 0  9995
2 41181  46.9996 171.3042 0001984 316.9897  43.0828 14.45382235524196
ORBCOMM FM110           
1 41182U 15081D   25331.11774604  .00001104  00000+0  27121-3 0  9996
2 41182  47.0019 236.6540 0002554 239.9873 120.0760 14.58593350528129
ORBCOMM FM118           
1 41183U 15081E   25331.15197875  .00000911  00000+0  23048-3 0  9999
2 41183  47.0038 236.7839 0002536 193.8264 166.2552 14.58538566528236
ORBCOMM FM112           
1 41184U 15081F   25330.94945887  .00000817  00000+0  21010-3 0  9992
2 41184  46.9969 146.2866 0001125 351.2760   8.8106 14.58605531529422
ORBCOMM FM113           
1 41185U 15081G   25330.51574142  .00000883  00000+0  22406-3 0  9991
2 41185  46.9988 148.6902 0000837   4.3119 355.7774 14.58595722529340
